BEIDOU-2 IGSO-7         
1 43539U 18057A   25008.83281293 -.00000060  00000+0  00000+0 0  9991
2 43539  55.1592 167.5936 0079641 232.0843 118.4997  1.00248515 23874
TELSTAR 19V             
1 43562U 18059A   25009.30804064 -.00000269  00000+0  00000+0 0  9990
2 43562   0.0370 175.5634 0001058  42.0236 299.3855  1.00270056 23911
TELKOM 4 (MERAH PUTIH)  
1 43587U 18064A   25010.03382625 -.00000335  00000+0  00000+0 0  9993
2 43587   0.0082  57.4032 0002040 267.0197 265.5557  1.00272151 23614
TELSTAR 18V             
1 43611U 18069A   25009.20500032 -.00000283  00000+0  00000+0 0  9999
2 43611   0.0028  98.4558 0001995 189.1567  33.1573  1.00269338 23354
AZERSPACE 2 (IS-38)     
1 43632U 18074A   25009.18658164  .00000147  00000+0  00000+0 0  9993
2 43632   0.0183  34.7179 0002469 285.5648 260.9490  1.00271264 23190
HORIZONS-3E             
1 43633U 18074B   25009.18729981 -.00000020  00000+0  00000+0 0  9991
2 43633   0.0468 214.8710 0001907  46.7541  83.7682  1.00270932 23065
AEHF-4 (USA 288)        
1 43651U 18079A   25009.23575602 -.00000263  00000+0  00000+0 0  9990
2 43651   1.6223 334.3358 0050757   6.0538 146.0813  1.00270855 23039
BEIDOU-3 G1             
1 43683U 18085A   25009.99141476 -.00000271  00000+0  00000+0 0  9992
2 43683   2.7068 102.5008 0001234  76.0966  68.0894  1.00273753 22804
GSAT-29                 
1 43698U 18089A   25010.15813043  .00000094  00000+0  00000+0 0  9990
2 43698   0.0109 307.2847 0003299 325.4925 309.1041  1.00272546 22577
ES'HAIL 2               
1 43700U 18090A   25010.11646817  .00000153  00000+0  00000+0 0  9991
2 43700   0.0251  35.8807 0003044 295.0486 206.6724  1.00271889 22670
GEO-KOMPSAT-2A          
1 43823U 18100A   25009.27450476 -.00000333  00000+0  00000+0 0  9999
2 43823   0.0260 138.6518 0000376 243.5739 313.8836  1.00270045 22400
GSAT-11                 
1 43824U 18100B   25009.88729846 -.00000068  00000+0  00000+0 0  9992
2 43824   0.0493 255.6239 0001167 156.6404  90.8105  1.00271302 22230
GSAT-7A                 
1 43864U 18105A   25010.09354991  .00000036  00000+0  00000+0 0  9995
2 43864   0.0535 256.3336 0002595  19.4369 290.4917  1.00270220 22191
COSMOS 2533             
1 43867U 18107A   25009.22202192 -.00000027  00000+0  00000+0 0  9999
2 43867   0.0375 108.3311 0000730 192.5826 318.0059  1.00269226 22160
TJS-3                   
1 43874U 18110A   25009.36158285 -.00000207  00000+0  00000+0 0  9999
2 43874   1.1889  86.8299 0018281 356.5082 306.7620  1.00157853 22239
ZHONGXING-2D            
1 43920U 19001A   25009.87202184 -.00000328  00000+0  00000+0 0  9999
2 43920   0.0347 140.4696 0001250 103.6783 309.4206  1.00270531 48836
HELLAS-SAT 4 & SGS-1    
1 44034U 19007A   25009.86230014  .00000162  00000+0  00000+0 0  9999
2 44034   0.0686 125.2511 0003741  47.0704 286.7476  1.00269757 22114
GSAT-31                 
1 44035U 19007B   25010.16299310  .00000133  00000+0  00000+0 0  9997
2 44035   0.0180  35.6067 0006411 243.0712 297.8246  1.00274108 21717
NUSANTARA SATU          
1 44048U 19009A   25009.19840841 -.00000224  00000+0  00000+0 0  9997
2 44048   0.0325 120.3420 0001173  60.0991 145.9607  1.00270042 21507
ZHONGXING-6C            
1 44067U 19012A   25010.07063182 -.00000327  00000+0  00000+0 0  9990
2 44067   0.0702  82.4704 0003466 210.1897 333.0403  1.00269058 21486
WGS 10 (USA 291)        
1 44071U 19014A   25009.23313078  .00000058  00000+0  00000+0 0  9995
2 44071   0.0186  55.9010 0000533 324.7724 232.5428  1.00270852 21377
TIANLIAN 2-01           
1 44076U 19017A   25009.88174132 -.00000098  00000+0  00000+0 0  9995
2 44076   0.2265  94.2354 0003941 203.8786 206.0010  1.00270695 21402
ARABSAT-6A              
1 44186U 19021A   25008.54354927  .00000165  00000+0  00000+0 0  9990
2 44186   0.0350   0.7532 0006021 285.6978  48.0102  1.00267026 20892
BEIDOU-3 IGSO-1         
1 44204U 19023A   25009.98707072 -.00000214  00000+0  00000+0 0  9991
2 44204  57.9463  43.0622 0023577 224.4827 315.6012  1.00291954 21114
BEIDOU-2 G8             
1 44231U 19027A   25009.27780622 -.00000239  00000+0  00000+0 0  9996
2 44231   1.9908  74.8732 0005059 204.8651  73.7816  1.00274332 20825
YAMAL 601               
1 44307U 19031A   25010.15813043  .00000128  00000+0  00000+0 0  9994
2 44307   0.0175  69.9623 0002785 212.2425 293.6307  1.00272688 20666
AT&T T-16               
1 44333U 19034A   25009.30048203 -.00000104  00000+0  00000+0 0  9994
2 44333   0.0190  40.4734 0001083 113.6148 322.2916  1.00269940 20375
EUTELSAT 7C             
1 44334U 19034B   25008.28590911  .00000060  00000+0  00000+0 0  9999
2 44334   0.0704 191.6692 0003486  81.4386 304.8860  1.00270069  1573
BEIDOU-3 IGSO-2         
1 44337U 19035A   25008.83341259 -.00000077  00000+0  00000+0 0  9992
2 44337  55.1978 163.4645 0035772 197.5322 165.8689  1.00275092 20416
COSMOS 2539             
1 44457U 19048A   25008.88105206  .00000092  00000+0  00000+0 0  9990
2 44457   0.0369 106.4216 0000702 243.2005  88.2102  1.00271590 19960
EDRS-C                  
1 44475U 19049A   25008.61216942  .00000167  00000+0  00000+0 0  9995
2 44475   0.0878 249.8865 0000562  76.2459  33.8540  1.00275530 19935
INTELSAT 39 (IS-39)     
1 44476U 19049B   25009.22202192  .00000044  00000+0  00000+0 0  9990
2 44476   0.0026 103.5337 0000669  74.4108  72.9187  1.00271037 19872
AMOS-17                 
1 44479U 19050A   25010.18142750  .00000118  00000+0  00000+0 0  9997
2 44479   0.0113 343.1440 0002106 289.5392 279.5704  1.00271891 19936
AEHF-5 (USA 292)        
1 44481U 19051A   25009.98140346 -.00000220  00000+0  00000+0 0  9991
2 44481   2.2856 311.2583 0059204  10.9348 230.8892  1.00272692 20018
EUTELSAT 5 WEST B       
1 44624U 19067A   25009.85257916 -.00000033  00000+0  00000+0 0  9997
2 44624   0.0635 349.3229 0003445 298.7958 123.4182  1.00270986 19185
MEV-1                   
1 44625U 19067B   25008.50327212 -.00000190  00000+0  00000+0 0  9990
2 44625   0.0142  72.6634 0001997 248.9482 300.3532  1.00269203 19066
TJS-4                   
1 44637U 19070A   25010.13660704 -.00000161  00000+0  00000+0 0  9993
2 44637   0.0662 243.8762 0004636  91.2027 267.5451  1.00270910 19282
BEIDOU-3 IGSO-3         
1 44709U 19073A   25008.16806152 -.00000207  00000+0  00000+0 0  9996
2 44709  55.7005 286.5501 0041096 184.2312 175.7715  1.00294580 19198
TIBA-1                  
1 44800U 19080A   25010.16368753  .00000164  00000+0  00000+0 0  9990
2 44800   0.0515 358.5348 0002179 293.6099 272.2408  1.00267695 18833
INMARSAT GX5            
1 44801U 19080B   25009.84007753  .00000084  00000+0  00000+0 0  9995
2 44801   0.0419  36.4907 0002298 254.0088 132.5030  1.00271045  1533
JCSAT-18 (KACIFIC 1)    
1 44868U 19091A   25006.70646312 -.00000187  00000+0  00000+0 0  9997
2 44868   0.0427 213.8418 0000443  46.6425 250.3606  1.00270134 18739
ELEKTRO-L 3             
1 44903U 19095A   25009.97871017 -.00000087  00000+0  00000+0 0  9994
2 44903   0.0758 123.9335 0002534 166.9120 247.2374  1.00270241 18440
SHIJIAN-20 (SJ-20)      
1 44910U 19097A   25009.84597928 -.00000063  00000+0  00000+0 0  9990
2 44910   3.5739  81.5029 0007891 174.4463 231.2171  1.00272383 18457
TJS-5                   
1 44978U 20002A   25010.11403333 -.00000333  00000+0  00000+0 0  9990
2 44978   0.3135  91.4330 0006573 143.8312  23.1462  1.00269292 18445
GSAT-30                 
1 45026U 20005A   25010.03382559 -.00000156  00000+0  00000+0 0  9998
2 45026   0.0161  78.9066 0001254 161.4312 324.7211  1.00270842 18286
EUTELSAT KONNECT        
1 45027U 20005B   25006.74929522  .00000063  00000+0  00000+0 0  9995
2 45027   0.0644  89.1558 0000735 210.5412  83.8108  1.00269719 19047
JCSAT-17                
1 45245U 20013A   25009.80327275 -.00000304  00000+0  00000+0 0  9992
2 45245   5.4917 351.7782 0004301 305.0438 237.9351  1.00271346 17992
GEO-KOMPSAT-2B          
1 45246U 20013B   25009.20291519 -.00000333  00000+0  00000+0 0  9990
2 45246   0.0489 233.1197 0002484  48.4951  28.6529  1.00269637 18026
BEIDOU-3 G2             
1 45344U 20017A   25009.97949208 -.00000133  00000+0  00000+0 0  9990
2 45344   2.6082  36.5928 0004487 238.0190 267.7232  1.00269701 18025
AEHF-6 (USA 298)        
1 45465U 20022B   25009.99089347 -.00000284  00000+0  00000+0 0  9998
2 45465   3.7352 298.1912 0049358   5.8813 300.1293  1.00267667 17733
BEIDOU-3 G3             
1 45807U 20040A   25009.77120147 -.00000346  00000+0  00000+0 0  9997
2 45807   1.1944  58.9202 0003294 302.5268 136.2061  1.00275646 16822
APSTAR-6D               
1 45863U 20045A   25008.59421733 -.00000306  00000+0  00000+0 0  9994
2 45863   0.0428  92.8774 0001950 342.7247  20.6940  1.00268953 16601
KOREASAT 116            
1 45920U 20048A   25010.07584139 -.00000353  00000+0  00000+0 0  9999
2 45920   0.0114  17.0006 0001170 266.2878 330.0513  1.00271260 16382
EXPRESS 103             
1 45985U 20053A   25010.02827108 -.00000271  00000+0  00000+0 0  9996
2 45985   0.0136 334.2160 0000288 234.4900   7.7593  1.00271382 16408
EXPRESS 80              
1 45986U 20053B   25009.47441983 -.00000125  00000+0  00000+0 0  9995
2 45986   0.0192   7.9972 0001369  59.2514 292.7658  1.00269588 16381
BSAT-4B                 
1 46112U 20056A   25009.41377427 -.00000340  00000+0  00000+0 0  9994
2 46112   0.0683 113.3514 0000993  82.3430 172.2893  1.00271450 16135
MEV-2                   
1 46113U 20056B   25009.92306244 -.00000002  00000+0  00000+0 0  9995
2 46113   0.0222 289.9955 0001406  36.7509 114.2301  1.00268778 16964
GALAXY 30 (G-30)        
1 46114U 20056C   25008.34979859  .00000050  00000+0  00000+0 0  9991
2 46114   0.0182  50.6826 0002253 238.3054 180.0653  1.00271628 16033
GAOFEN-13 01            
1 46610U 20071A   25008.14910470 -.00000350  00000+0  00000+0 0  9995
2 46610   0.1911  81.6228 0017232 120.6199  77.2249  1.00263553 15654
